NORAD_CAT_ID,OBJECT_NAME,OBJECT_TYPE,EPOCH,MEAN_MOTION,ECCENTRICITY,INCLINATION,RA_OF_ASC_NODE,ARG_OF_PERICENTER,MEAN_ANOMALY,BSTAR,MEAN_MOTION_DOT,MEAN_MOTION_DDOT,TLE_LINE0,TLE_LINE1,TLE_LINE2,SEMIMAJOR_AXIS,PERIOD,APOGEE,PERIGEE,DECAYED
52271.0,STARLINK-3788,PAYLOAD,2023-01-14 21:28:20,15.08840482,0.0001633,53.2129,230.7568,79.2399,280.8777,0.00015316,2.15e-05,0.0,0 STARLINK-3788,1 52271U 22041L   23014.89468422  .00002150  00000-0  15316-3 0  9996,2 52271  53.2129 230.7568 0001633  79.2399 280.8777 15.08840482 42009,6917.879,95.438,540.874,538.614,0.0
52271.0,STARLINK-3788,PAYLOAD,2023-01-15 13:22:12,15.08837463,0.0001698,53.2125,227.7825,77.161,282.9572,5.7726e-06,-1.96e-06,0.0,0 STARLINK-3788,1 52271U 22041L   23015.55708639 -.00000196  00000-0  57726-5 0  9999,2 52271  53.2125 227.7825 0001698  77.1610 282.9572 15.08837463 40886,6917.888000000001,95.438,540.928,538.578,0.0
52271.0,STARLINK-3788,PAYLOAD,2023-01-15 21:19:07,15.08843176,0.0001453,53.2129,226.2957,82.2602,277.8555,0.0001503,2.105e-05,0.0,0 STARLINK-3788,1 52271U 22041L   23015.88828466  .00002105  00000-0  15030-3 0  9997,2 52271  53.2129 226.2957 0001453  82.2602 277.8555 15.08843176 40935,6917.871,95.437,540.741,538.731,0.0
52271.0,STARLINK-3788,PAYLOAD,2023-01-16 06:51:26,15.08841284,0.00015,53.2131,224.5115,84.6479,275.4684,0.00012519,1.705e-05,0.0,0 STARLINK-3788,1 52271U 22041L   23016.28572601  .00001705  00000-0  12519-3 0  9993,2 52271  53.2131 224.5115 0001500  84.6479 275.4684 15.08841284 42214,6917.876,95.437,540.779,538.7040000000001,0.0
52271.0,STARLINK-3788,PAYLOAD,2023-01-16 14:48:22,15.08834997,0.0001526,53.2135,223.025,87.4805,272.6362,5.5005e-05,5.87e-06,0.0,0 STARLINK-3788,1 52271U 22041L   23016.61692958  .00000587  00000-0  55005-4 0  9993,2 52271  53.2135 223.0250 0001526  87.4805 272.6362 15.08834997 41049,6917.896,95.438,540.816,538.705,0.0
52271.0,STARLINK-3788,PAYLOAD,2023-01-16 17:59:08,15.08837925,0.0001544,53.2138,222.4303,88.0631,272.0537,0.00011425,1.531e-05,0.0,0 STARLINK-3788,1 52271U 22041L   23016.74940906  .00001531  00000-0  11425-3 0  9993,2 52271  53.2138 222.4303 0001544  88.0631 272.0537 15.08837925 41062,6917.887,95.438,540.82,538.684,0.0
52271.0,STARLINK-3788,PAYLOAD,2023-01-17 13:03:46,15.08836099,0.0001452,53.2135,218.8615,87.1124,273.0034,0.00012923,1.769e-05,0.0,0 STARLINK-3788,1 52271U 22041L   23017.54429244  .00001769  00000-0  12923-3 0  9996,2 52271  53.2135 218.8615 0001452  87.1124 273.0034 15.08836099 42402,6917.892,95.438,540.762,538.753,0.0
52271.0,STARLINK-3788,PAYLOAD,2023-01-17 19:25:19,15.088413199999998,0.0001412,53.2131,217.6721,87.8304,272.285,0.00016614,2.357e-05,0.0,0 STARLINK-3788,1 52271U 22041L   23017.80925009  .00002357  00000-0  16614-3 0  9990,2 52271  53.2131 217.6721 0001412  87.8304 272.2850 15.08841320 41225,6917.876,95.437,540.7180000000001,538.765,0.0
52271.0,STARLINK-3788,PAYLOAD,2023-01-18 12:54:33,15.08840981,0.0001318,53.2119,214.3999,90.0873,270.027,0.00019454,2.81e-05,0.0,0 STARLINK-3788,1 52271U 22041L   23018.53789113  .00002810  00000-0  19454-3 0  9994,2 52271  53.2119 214.3999 0001318  90.0873 270.0270 15.08840981 41330,6917.877,95.437,540.654,538.831,0.0
52271.0,STARLINK-3788,PAYLOAD,2023-01-18 19:16:06,15.08844207,0.0001346,53.2125,213.2103,89.2417,270.8729,0.00020572,2.988e-05,0.0,0 STARLINK-3788,1 52271U 22041L   23018.80284957  .00002988  00000-0  20572-3 0  9999,2 52271  53.2125 213.2103 0001346  89.2417 270.8729 15.08844207 42598,6917.868,95.437,540.664,538.8009999999999,0.0
52271.0,STARLINK-3788,PAYLOAD,2023-01-19 12:45:21,15.08837538,0.0001308,53.2122,209.9389,92.2627,267.8514,0.00025104,3.709e-05,0.0,0 STARLINK-3788,1 52271U 22041L   23019.53149318  .00003709  00000-0  25104-3 0  9999,2 52271  53.2122 209.9389 0001308  92.2627 267.8514 15.08837538 41482,6917.888000000001,95.438,540.658,538.8480000000001,0.0
52271.0,STARLINK-3788,PAYLOAD,2023-01-19 19:06:53,15.08839986,0.0001261,53.2122,208.7493,92.3818,267.7318,0.00024281,3.579e-05,0.0,0 STARLINK-3788,1 52271U 22041L   23019.79645185  .00003579  00000-0  24281-3 0  9990,2 52271  53.2122 208.7493 0001261  92.3818 267.7318 15.08839986 42746,6917.88,95.438,540.618,538.873,0.0
52271.0,STARLINK-3788,PAYLOAD,2023-01-19 20:42:16,15.08844418,0.0001291,53.2124,208.4521,90.1225,269.9915,0.00010423,1.372e-05,0.0,0 STARLINK-3788,1 52271U 22041L   23019.86268860  .00001372  00000-0  10423-3 0  9991,2 52271  53.2124 208.4521 0001291  90.1225 269.9915 15.08844418 41537,6917.866999999999,95.437,540.625,538.839,0.0
52271.0,STARLINK-3788,PAYLOAD,2023-01-20 15:46:54,15.08837599,0.0001264999999999,53.2142,204.8835,91.7887,268.325,5.8069e-05,6.36e-06,0.0,0 STARLINK-3788,1 52271U 22041L   23020.65757290  .00000636  00000-0  58069-4 0  9991,2 52271  53.2142 204.8835 0001265  91.7887 268.3250 15.08837599 42872,6917.888000000001,95.438,540.628,538.878,0.0
52271.0,STARLINK-3788,PAYLOAD,2023-01-21 17:13:04,15.08844364,0.0001211999999999,53.2144,200.1257,86.3836,273.7294,9.2916e-05,1.191e-05,0.0,0 STARLINK-3788,1 52271U 22041L   23021.71740785  .00001191  00000-0  92916-4 0  9996,2 52271  53.2144 200.1257 0001212  86.3836 273.7294 15.08844364 43032,6917.866999999999,95.437,540.57,538.894,0.0
52271.0,STARLINK-3788,PAYLOAD,2023-01-22 12:17:42,15.08835125,0.0001223,53.2147,196.557,90.908,269.2052,4.736600000000001e-05,4.66e-06,0.0,0 STARLINK-3788,1 52271U 22041L   23022.51229511  .00000466  00000-0  47366-4 0  9997,2 52271  53.2147 196.5570 0001223  90.9080 269.2052 15.08835125 43155,6917.895,95.438,540.606,538.914,0.0
52271.0,STARLINK-3788,PAYLOAD,2023-01-24 04:02:20,15.08842285,0.0001119,53.2146,189.123,89.5584,270.5536,7.061800000000001e-05,8.36e-06,0.0,0 STARLINK-3788,1 52271U 22041L   23024.16829067  .00000836  00000-0  70618-4 0  9999,2 52271  53.2146 189.1230 0001119  89.5584 270.5536 15.08842285 43407,6917.8730000000005,95.437,540.513,538.964,0.0
52271.0,STARLINK-3788,PAYLOAD,2023-01-25 10:14:40,15.08836047,0.0001204,53.2136,183.4729,90.5919,269.5211,2.587e-05,1.24e-06,0.0,0 STARLINK-3788,1 52271U 22041L   23025.42685632  .00000124  00000-0  25870-4 0  9997,2 52271  53.2136 183.4729 0001204  90.5919 269.5211 15.08836047 43592,6917.892,95.438,540.59,538.925,0.0
52271.0,STARLINK-3788,PAYLOAD,2023-01-25 18:11:35,15.08839266,0.0001261,53.2139,181.9858,89.3879,270.7258,4.4323e-05,4.18e-06,0.0,0 STARLINK-3788,1 52271U 22041L   23025.75805454  .00000418  00000-0  44323-4 0  9999,2 52271  53.2139 181.9858 0001261  89.3879 270.7258 15.08839266 42427,6917.883000000001,95.438,540.62,538.875,0.0
52271.0,STARLINK-3788,PAYLOAD,2023-01-26 13:16:13,15.08842647,0.0001209,53.2138,178.417,89.3781,270.735,7.6808e-05,9.35e-06,0.0,0 STARLINK-3788,1 52271U 22041L   23026.55293166  .00000935  00000-0  76808-4 0  9996,2 52271  53.2138 178.4170 0001209  89.3781 270.7350 15.08842647 42541,6917.871999999999,95.437,540.5740000000001,538.901,0.0
52271.0,STARLINK-3788,PAYLOAD,2023-01-26 14:51:36,15.08844502,0.0001283,53.2141,178.1194,90.3012,269.8127,8.706600000000001e-05,1.098e-05,0.0,0 STARLINK-3788,1 52271U 22041L   23026.61917032  .00001098  00000-0  87066-4 0  9997,2 52271  53.2141 178.1194 0001283  90.3012 269.8127 15.08844502 43778,6917.866999999999,95.437,540.619,538.844,0.0
52271.0,STARLINK-3788,PAYLOAD,2023-01-27 13:07:00,15.08834831,0.0001273,53.2141,173.9555,95.8071,264.3066,9.8274e-05,1.276e-05,0.0,0 STARLINK-3788,1 52271U 22041L   23027.54653599  .00001276  00000-0  98274-4 0  9996,2 52271  53.2141 173.9555 0001273  95.8071 264.3066 15.08834831 43918,6917.896,95.438,540.6419999999999,538.881,0.0
52271.0,STARLINK-3788,PAYLOAD,2023-01-27 14:42:22,15.08870172,0.0001381,53.2142,173.6581,85.8835,274.2315,-0.00041957,-6.965e-05,0.0,0 STARLINK-3788,1 52271U 22041L   23027.61276372 -.00006965  00000-0 -41957-3 0  9991,2 52271  53.2142 173.6581 0001381  85.8835 274.2315 15.08870172 42703,6917.7880000000005,95.436,540.609,538.698,0.0
52271.0,STARLINK-3788,PAYLOAD,2023-01-27 17:53:09,15.08839856,0.0001237,53.2144,173.0633,95.745,264.3683,6.0876000000000005e-05,6.81e-06,0.0,0 STARLINK-3788,1 52271U 22041L   23027.74525374  .00000681  00000-0  60876-4 0  9993,2 52271  53.2144 173.0633 0001237  95.7450 264.3683 15.08839856 42724,6917.880999999999,95.438,540.602,538.89,0.0
52271.0,STARLINK-3788,PAYLOAD,2023-01-28 12:57:47,15.0884157,0.0001332,53.2144,169.4938,106.1572,253.9567,1.4351e-05,-5.9e-07,0.0,0 STARLINK-3788,1 52271U 22041L   23028.54013403 -.00000059  00000-0  14351-4 0  9994,2 52271  53.2144 169.4938 0001332 106.1572 253.9567 15.08841570 42843,6917.876,95.437,540.662,538.819,0.0
52271.0,STARLINK-3788,PAYLOAD,2023-01-28 19:19:20,15.08842706,0.0001277,53.2147,168.3043,109.0055,251.1076,1.1517e-05,-1.05e-06,0.0,0 STARLINK-3788,1 52271U 22041L   23028.80509266 -.00000105  00000-0  11517-4 0  9993,2 52271  53.2147 168.3043 0001277 109.0055 251.1076 15.08842706 44105,6917.872,95.437,540.621,538.854,0.0
52271.0,STARLINK-3788,PAYLOAD,2023-01-29 01:40:53,15.08835037,0.0001179,53.2149,167.1159,95.5688,264.5439,-2.3827e-05,-6.67e-06,0.0,0 STARLINK-3788,1 52271U 22041L   23029.07005883 -.00000667  00000-0 -23827-4 0  9990,2 52271  53.2149 167.1159 0001179  95.5688 264.5439 15.08835037 44148,6917.896,95.438,540.576,538.945,0.0
52271.0,STARLINK-3788,PAYLOAD,2023-01-29 15:59:22,15.0882865,0.0001295,53.216,164.4406,86.4119,273.7021,-4.7063e-05,-1.037e-05,0.0,0 STARLINK-3788,1 52271U 22041L   23029.66622797 -.00001037  00000-0 -47063-4 0  9994,2 52271  53.2160 164.4406 0001295  86.4119 273.7021 15.08828650 44235,6917.915,95.438,540.676,538.884,0.0
52271.0,STARLINK-3788,PAYLOAD,2023-01-29 20:45:31,15.08834745,0.0001249,53.2156,163.5476,85.2502,274.8632,3.5189e-06,-2.32e-06,0.0,0 STARLINK-3788,1 52271U 22041L   23029.86494310 -.00000232  00000-0  35189-5 0  9996,2 52271  53.2156 163.5476 0001249  85.2502 274.8632 15.08834745 43049,6917.896,95.438,540.625,538.897,0.0
